API VERSION: 1.2
API SOURCE: NASA/JPL Horizons API



*******************************************************************************
Ephemeris / API_USER Sat Jul 11 19:36:48 2026 Pasadena, USA      / Horizons    
*******************************************************************************
Target body name: 2060 Chiron (1977 UB)           {source: JPL#171}
Center body name: Earth (399)                     {source: DE441}
Center-site name: GEOCENTRIC
*******************************************************************************
Start time      : A.D. 1975-Jan-01 00:00:00.0000 UT      
Stop  time      : A.D. 1980-Jan-01 00:00:00.0000 UT      
Step-size       : 2880 minutes
*******************************************************************************
Target pole/equ : undefined
Target radii    : 83. km                                                       
Center geodetic : 0.0, 0.0, -6378.137             {E-lon(deg),Lat(deg),Alt(km)}
Center cylindric: 0.0, 0.0, 0.0                   {E-lon(deg),Dxy(km),Dz(km)}
Center pole/equ : ITRF93                          {East-longitude positive}
Center radii    : 6378.137, 6378.137, 6356.752 km {Equator_a, b, pole_c}       
Target primary  : Sun
Vis. interferer : MOON (R_eq= 1737.400) km        {source: DE441}
Rel. light bend : Sun                             {source: DE441}
Rel. lght bnd GM: 1.3271E+11 km^3/s^2                                          
Small-body perts: Yes                             {source: SB441-N16}
Atmos refraction: NO (AIRLESS)
RA format       : DEG
Time format     : CAL 
Calendar mode   : Mixed Julian/Gregorian
EOP file        : eop.260710.p261006                                           
EOP coverage    : DATA-BASED 1962-JAN-20 TO 2026-JUL-10. PREDICTS-> 2026-OCT-05
Units conversion: 1 au= 149597870.700 km, c= 299792.458 km/s, 1 day= 86400.0 s 
Table cut-offs 1: Elevation (-90.0deg=NO ),Airmass (>38.000=NO), Daylight (NO )
Table cut-offs 2: Solar elongation (  0.0,180.0=NO ),Local Hour Angle( 0.0=NO )
Table cut-offs 3: RA/DEC angular rate (     0.0=NO )                           
*******************************************************************************
Initial IAU76/J2000 heliocentric ecliptic osculating elements (au, days, deg.):
  EPOCH=  2457916.5 ! 2017-Jun-12.00 (TDB)         Residual RMS= .19933        
   EC= .3824171374703196   QR= 8.427522999110739   TP= 2450143.7110841358      
   OM= 209.2011323125998   W=  339.6529896907077   IN= 6.94959060447848        
  Equivalent ICRF heliocentric cartesian coordinates (au, au/d):
   X= 1.843374627977423E+01  Y=-1.877818593473934E+00  Z= 5.548833989583914E-01
  VX= 7.316266023833624E-04 VY= 2.960187278972600E-03 VZ= 9.710586201315230E-04
Asteroid physical parameters (km, seconds, rotational period in hours):        
   GM= n.a.                RAD= 83.                ROTPER= 5.918               
   H= 5.54                 G= .150                 B-V= .704                   
                           ALBEDO= .150            STYP= Cb                    
*******************************************************************************
 Date__(UT)__HR:MN        ObsEcLon    ObsEcLat
**********************************************
$$SOE
 1977-May-14 00:00      32.7883264  -0.2954078
 1977-May-16 00:00      32.9048775  -0.2979850
 1977-May-18 00:00      33.0203152  -0.3005816
 1977-May-20 00:00      33.1345387  -0.3031972
 1977-May-22 00:00      33.2474326  -0.3058314
 1977-May-24 00:00      33.3588773  -0.3084842
 1977-May-26 00:00      33.4687639  -0.3111556
 1977-May-28 00:00      33.5770088  -0.3138461
 1977-May-30 00:00      33.6835639  -0.3165563
 1977-Jun-01 00:00      33.7883979  -0.3192873
 1977-Jun-03 00:00      33.8914378  -0.3220403
 1977-Jun-05 00:00      33.9925500  -0.3248159
 1977-Jun-07 00:00      34.0916093  -0.3276146
 1977-Jun-09 00:00      34.1885405  -0.3304361
 1977-Jun-11 00:00      34.2832923  -0.3332797
 1977-Jun-13 00:00      34.3758067  -0.3361449
 1977-Jun-15 00:00      34.4660086  -0.3390310
 1977-Jun-17 00:00      34.5538055  -0.3419372
 1977-Jun-19 00:00      34.6390934  -0.3448633
 1977-Jun-21 00:00      34.7217701  -0.3478087
 1977-Jun-23 00:00      34.8017516  -0.3507735
 1977-Jun-25 00:00      34.8789843  -0.3537579
 1977-Jun-27 00:00      34.9534452  -0.3567623
 1977-Jun-29 00:00      35.0251123  -0.3597876
 1977-Jul-01 00:00      35.0939168  -0.3628344
 1977-Jul-03 00:00      35.1597423  -0.3659030
 1977-Jul-05 00:00      35.2224953  -0.3689933
 1977-Jul-07 00:00      35.2821341  -0.3721044
 1977-Jul-09 00:00      35.3386339  -0.3752352
 1977-Jul-11 00:00      35.3919564  -0.3783848
 1977-Jul-13 00:00      35.4420452  -0.3815519
 1977-Jul-15 00:00      35.4888297  -0.3847357
 1977-Jul-17 00:00      35.5322328  -0.3879353
 1977-Jul-19 00:00      35.5721854  -0.3911501
 1977-Jul-21 00:00      35.6086447  -0.3943797
 1977-Jul-23 00:00      35.6416024  -0.3976239
 1977-Jul-25 00:00      35.6710721  -0.4008830
 1977-Jul-27 00:00      35.6970523  -0.4041573
 1977-Jul-29 00:00      35.7194955  -0.4074467
 1977-Jul-31 00:00      35.7383275  -0.4107510
 1977-Aug-02 00:00      35.7535077  -0.4140692
 1977-Aug-04 00:00      35.7650438  -0.4173999
 1977-Aug-06 00:00      35.7729525  -0.4207415
 1977-Aug-08 00:00      35.7772334  -0.4240923
 1977-Aug-10 00:00      35.7778693  -0.4274507
 1977-Aug-12 00:00      35.7748335  -0.4308153
 1977-Aug-14 00:00      35.7680990  -0.4341847
 1977-Aug-16 00:00      35.7576533  -0.4375579
 1977-Aug-18 00:00      35.7435179  -0.4409343
 1977-Aug-20 00:00      35.7257508  -0.4443132
 1977-Aug-22 00:00      35.7044193  -0.4476945
 1977-Aug-24 00:00      35.6795612  -0.4510778
 1977-Aug-26 00:00      35.6511759  -0.4544626
 1977-Aug-28 00:00      35.6192595  -0.4578478
 1977-Aug-30 00:00      35.5838491  -0.4612318
 1977-Sep-01 00:00      35.5450200  -0.4646125
 1977-Sep-03 00:00      35.5028495  -0.4679879
 1977-Sep-05 00:00      35.4573961  -0.4713557
 1977-Sep-07 00:00      35.4087040  -0.4747140
 1977-Sep-09 00:00      35.3568130  -0.4780609
 1977-Sep-11 00:00      35.3017679  -0.4813949
 1977-Sep-13 00:00      35.2436346  -0.4847146
 1977-Sep-15 00:00      35.1825173  -0.4880191
 1977-Sep-17 00:00      35.1185549  -0.4913077
 1977-Sep-19 00:00      35.0518792  -0.4945801
 1977-Sep-21 00:00      34.9825806  -0.4978357
 1977-Sep-23 00:00      34.9107231  -0.5010734
 1977-Sep-25 00:00      34.8363892  -0.5042919
 1977-Sep-27 00:00      34.7597022  -0.5074893
 1977-Sep-29 00:00      34.6808101  -0.5106633
 1977-Oct-01 00:00      34.5998542  -0.5138117
 1977-Oct-03 00:00      34.5169559  -0.5169325
 1977-Oct-05 00:00      34.4322236  -0.5200237
 1977-Oct-07 00:00      34.3457642  -0.5230837
 1977-Oct-09 00:00      34.2576941  -0.5261111
 1977-Oct-11 00:00      34.1681526  -0.5291050
 1977-Oct-13 00:00      34.0773174  -0.5320648
 1977-Oct-15 00:00      33.9853928  -0.5349904
 1977-Oct-17 00:00      33.8925571  -0.5378817
 1977-Oct-19 00:00      33.7989361  -0.5407386
 1977-Oct-21 00:00      33.7046446  -0.5435603
 1977-Oct-23 00:00      33.6098299  -0.5463457
 1977-Oct-25 00:00      33.5146727  -0.5490934
 1977-Oct-27 00:00      33.4193612  -0.5518019
 1977-Oct-29 00:00      33.3240676  -0.5544695
 1977-Oct-31 00:00      33.2289415  -0.5570951
 1977-Nov-02 00:00      33.1341191  -0.5596776
 1977-Nov-04 00:00      33.0397357  -0.5622164
 1977-Nov-06 00:00      32.9459368  -0.5647109
 1977-Nov-08 00:00      32.8528904  -0.5671614
 1977-Nov-10 00:00      32.7607963  -0.5695683
 1977-Nov-12 00:00      32.6698678  -0.5719325
 1977-Nov-14 00:00      32.5802742  -0.5742550
 1977-Nov-16 00:00      32.4921251  -0.5765365
 1977-Nov-18 00:00      32.4055329  -0.5787773
 1977-Nov-20 00:00      32.3206509  -0.5809770
 1977-Nov-22 00:00      32.2376527  -0.5831354
 1977-Nov-24 00:00      32.1567028  -0.5852519
 1977-Nov-26 00:00      32.0779414  -0.5873262
 1977-Nov-28 00:00      32.0014843  -0.5893584
 1977-Nov-30 00:00      31.9274333  -0.5913486
 1977-Dec-02 00:00      31.8558898  -0.5932974
 1977-Dec-04 00:00      31.7869663  -0.5952058
 1977-Dec-06 00:00      31.7207958  -0.5970749
 1977-Dec-08 00:00      31.6575342  -0.5989064
 1977-Dec-10 00:00      31.5973360  -0.6007024
 1977-Dec-12 00:00      31.5402999  -0.6024647
 1977-Dec-14 00:00      31.4864659  -0.6041949
 1977-Dec-16 00:00      31.4358897  -0.6058942
 1977-Dec-18 00:00      31.3886721  -0.6075630
 1977-Dec-20 00:00      31.3449216  -0.6092018
 1977-Dec-22 00:00      31.3047250  -0.6108111
 1977-Dec-24 00:00      31.2681413  -0.6123916
 1977-Dec-26 00:00      31.2352069  -0.6139442
 1977-Dec-28 00:00      31.2059465  -0.6154699
 1977-Dec-30 00:00      31.1803876  -0.6169702
 1978-Jan-01 00:00      31.1585721  -0.6184470
 1978-Jan-03 00:00      31.1405626  -0.6199021
 1978-Jan-05 00:00      31.1264346  -0.6213379
 1978-Jan-07 00:00      31.1162489  -0.6227567
 1978-Jan-09 00:00      31.1100084  -0.6241610
 1978-Jan-11 00:00      31.1076693  -0.6255525
 1978-Jan-13 00:00      31.1092144  -0.6269325
 1978-Jan-15 00:00      31.1146723  -0.6283019
 1978-Jan-17 00:00      31.1240703  -0.6296613
 1978-Jan-19 00:00      31.1374067  -0.6310115
 1978-Jan-21 00:00      31.1546533  -0.6323535
 1978-Jan-23 00:00      31.1757650  -0.6336885
 1978-Jan-25 00:00      31.2006909  -0.6350178
 1978-Jan-27 00:00      31.2293880  -0.6363433
 1978-Jan-29 00:00      31.2618335  -0.6376667
 1978-Jan-31 00:00      31.2980254  -0.6389902
 1978-Feb-02 00:00      31.3379656  -0.6403161
 1978-Feb-04 00:00      31.3816287  -0.6416467
 1978-Feb-06 00:00      31.4289375  -0.6429841
 1978-Feb-08 00:00      31.4797891  -0.6443296
 1978-Feb-10 00:00      31.5341158  -0.6456844
 1978-Feb-12 00:00      31.5918905  -0.6470490
 1978-Feb-14 00:00      31.6530772  -0.6484238
 1978-Feb-16 00:00      31.7176091  -0.6498095
 1978-Feb-18 00:00      31.7853967  -0.6512070
 1978-Feb-20 00:00      31.8563406  -0.6526171
 1978-Feb-22 00:00      31.9303426  -0.6540413
 1978-Feb-24 00:00      32.0073183  -0.6554809
